<?xml version="1.0" encoding="UTF-8"?>
<ndm xmlns:xsi="http://www.w3.org/2001/XMLSchema-instance" xsi:noNamespaceSchemaLocation="https://sanaregistry.org/r/ndmxml_unqualified/ndmxml-2.0.0-master-2.0.xsd">
<omm id="CCSDS_OMM_VERS" version="2.0">
<header><CREATION_DATE/><ORIGINATOR/></header><body><segment><metadata><OBJECT_NAME>QIANFAN-33</OBJECT_NAME><OBJECT_ID>2024-185Q</OBJECT_ID><CENTER_NAME>EARTH</CENTER_NAME><REF_FRAME>TEME</REF_FRAME><TIME_SYSTEM>UTC</TIME_SYSTEM><MEAN_ELEMENT_THEORY>SGP4</MEAN_ELEMENT_THEORY></metadata><data><meanElements><EPOCH>2025-08-14T14:21:40.290336</EPOCH><MEAN_MOTION>13.96411739</MEAN_MOTION><ECCENTRICITY>.0006841</ECCENTRICITY><INCLINATION>88.9768</INCLINATION><RA_OF_ASC_NODE>92.2227</RA_OF_ASC_NODE><ARG_OF_PERICENTER>359.4486</ARG_OF_PERICENTER><MEAN_ANOMALY>0.6682</MEAN_ANOMALY></meanElements><tleParameters><EPHEMERIS_TYPE>0</EPHEMERIS_TYPE><CLASSIFICATION_TYPE>U</CLASSIFICATION_TYPE><NORAD_CAT_ID>61566</NORAD_CAT_ID><ELEMENT_SET_NO>999</ELEMENT_SET_NO><REV_AT_EPOCH>5239</REV_AT_EPOCH><BSTAR>.15202E-3</BSTAR><MEAN_MOTION_DOT>.223E-5</MEAN_MOTION_DOT><MEAN_MOTION_DDOT>0</MEAN_MOTION_DDOT></tleParameters></data></segment></body></omm>
<omm id="CCSDS_OMM_VERS" version="2.0">
<header><CREATION_DATE/><ORIGINATOR/></header><body><segment><metadata><OBJECT_NAME>QIANFAN-34</OBJECT_NAME><OBJECT_ID>2024-185R</OBJECT_ID><CENTER_NAME>EARTH</CENTER_NAME><REF_FRAME>TEME</REF_FRAME><TIME_SYSTEM>UTC</TIME_SYSTEM><MEAN_ELEMENT_THEORY>SGP4</MEAN_ELEMENT_THEORY></metadata><data><meanElements><EPOCH>2025-08-14T13:21:41.476320</EPOCH><MEAN_MOTION>14.02164780</MEAN_MOTION><ECCENTRICITY>.0006436</ECCENTRICITY><INCLINATION>88.9746</INCLINATION><RA_OF_ASC_NODE>91.9493</RA_OF_ASC_NODE><ARG_OF_PERICENTER>13.4452</ARG_OF_PERICENTER><MEAN_ANOMALY>346.6899</MEAN_ANOMALY></meanElements><tleParameters><EPHEMERIS_TYPE>0</EPHEMERIS_TYPE><CLASSIFICATION_TYPE>U</CLASSIFICATION_TYPE><NORAD_CAT_ID>61567</NORAD_CAT_ID><ELEMENT_SET_NO>999</ELEMENT_SET_NO><REV_AT_EPOCH>5251</REV_AT_EPOCH><BSTAR>.22523E-3</BSTAR><MEAN_MOTION_DOT>.358E-5</MEAN_MOTION_DOT><MEAN_MOTION_DDOT>0</MEAN_MOTION_DDOT></tleParameters></data></segment></body></omm>
<omm id="CCSDS_OMM_VERS" version="2.0">
<header><CREATION_DATE/><ORIGINATOR/></header><body><segment><metadata><OBJECT_NAME>QIANFAN-35</OBJECT_NAME><OBJECT_ID>2024-185S</OBJECT_ID><CENTER_NAME>EARTH</CENTER_NAME><REF_FRAME>TEME</REF_FRAME><TIME_SYSTEM>UTC</TIME_SYSTEM><MEAN_ELEMENT_THEORY>SGP4</MEAN_ELEMENT_THEORY></metadata><data><meanElements><EPOCH>2025-08-14T13:50:14.109216</EPOCH><MEAN_MOTION>14.27671046</MEAN_MOTION><ECCENTRICITY>.000586</ECCENTRICITY><INCLINATION>88.9769</INCLINATION><RA_OF_ASC_NODE>91.0037</RA_OF_ASC_NODE><ARG_OF_PERICENTER>341.1159</ARG_OF_PERICENTER><MEAN_ANOMALY>18.9817</MEAN_ANOMALY></meanElements><tleParameters><EPHEMERIS_TYPE>0</EPHEMERIS_TYPE><CLASSIFICATION_TYPE>U</CLASSIFICATION_TYPE><NORAD_CAT_ID>61568</NORAD_CAT_ID><ELEMENT_SET_NO>999</ELEMENT_SET_NO><REV_AT_EPOCH>5303</REV_AT_EPOCH><BSTAR>.19933E-3</BSTAR><MEAN_MOTION_DOT>.506E-5</MEAN_MOTION_DOT><MEAN_MOTION_DDOT>0</MEAN_MOTION_DDOT></tleParameters></data></segment></body></omm>
<omm id="CCSDS_OMM_VERS" version="2.0">
<header><CREATION_DATE/><ORIGINATOR/></header><body><segment><metadata><OBJECT_NAME>QIANFAN-36</OBJECT_NAME><OBJECT_ID>2024-185T</OBJECT_ID><CENTER_NAME>EARTH</CENTER_NAME><REF_FRAME>TEME</REF_FRAME><TIME_SYSTEM>UTC</TIME_SYSTEM><MEAN_ELEMENT_THEORY>SGP4</MEAN_ELEMENT_THEORY></metadata><data><meanElements><EPOCH>2025-08-14T13:44:05.785152</EPOCH><MEAN_MOTION>13.55546408</MEAN_MOTION><ECCENTRICITY>.0007565</ECCENTRICITY><INCLINATION>88.9758</INCLINATION><RA_OF_ASC_NODE>93.5811</RA_OF_ASC_NODE><ARG_OF_PERICENTER>42.8110</ARG_OF_PERICENTER><MEAN_ANOMALY>317.3632</MEAN_ANOMALY></meanElements><tleParameters><EPHEMERIS_TYPE>0</EPHEMERIS_TYPE><CLASSIFICATION_TYPE>U</CLASSIFICATION_TYPE><NORAD_CAT_ID>61569</NORAD_CAT_ID><ELEMENT_SET_NO>999</ELEMENT_SET_NO><REV_AT_EPOCH>5164</REV_AT_EPOCH><BSTAR>.11789E-3</BSTAR><MEAN_MOTION_DOT>.94E-6</MEAN_MOTION_DOT><MEAN_MOTION_DDOT>0</MEAN_MOTION_DDOT></tleParameters></data></segment></body></omm>
<omm id="CCSDS_OMM_VERS" version="2.0">
<header><CREATION_DATE/><ORIGINATOR/></header><body><segment><metadata><OBJECT_NAME>QIANFAN-37</OBJECT_NAME><OBJECT_ID>2024-232B</OBJECT_ID><CENTER_NAME>EARTH</CENTER_NAME><REF_FRAME>TEME</REF_FRAME><TIME_SYSTEM>UTC</TIME_SYSTEM><MEAN_ELEMENT_THEORY>SGP4</MEAN_ELEMENT_THEORY></metadata><data><meanElements><EPOCH>2025-08-14T13:30:48.057408</EPOCH><MEAN_MOTION>13.50966138</MEAN_MOTION><ECCENTRICITY>.0002648</ECCENTRICITY><INCLINATION>88.9926</INCLINATION><RA_OF_ASC_NODE>53.4762</RA_OF_ASC_NODE><ARG_OF_PERICENTER>88.6533</ARG_OF_PERICENTER><MEAN_ANOMALY>271.4921</MEAN_ANOMALY></meanElements><tleParameters><EPHEMERIS_TYPE>0</EPHEMERIS_TYPE><CLASSIFICATION_TYPE>U</CLASSIFICATION_TYPE><NORAD_CAT_ID>62238</NORAD_CAT_ID><ELEMENT_SET_NO>999</ELEMENT_SET_NO><REV_AT_EPOCH>8294</REV_AT_EPOCH><BSTAR>.57513E-4</BSTAR><MEAN_MOTION_DOT>.49E-6</MEAN_MOTION_DOT><MEAN_MOTION_DDOT>0</MEAN_MOTION_DDOT></tleParameters></data></segment></body></omm>
<omm id="CCSDS_OMM_VERS" version="2.0">
<header><CREATION_DATE/><ORIGINATOR/></header><body><segment><metadata><OBJECT_NAME>QIANFAN-38</OBJECT_NAME><OBJECT_ID>2024-232C</OBJECT_ID><CENTER_NAME>EARTH</CENTER_NAME><REF_FRAME>TEME</REF_FRAME><TIME_SYSTEM>UTC</TIME_SYSTEM><MEAN_ELEMENT_THEORY>SGP4</MEAN_ELEMENT_THEORY></metadata><data><meanElements><EPOCH>2025-08-14T12:19:57.667296</EPOCH><MEAN_MOTION>13.50963755</MEAN_MOTION><ECCENTRICITY>.0014597</ECCENTRICITY><INCLINATION>88.9932</INCLINATION><RA_OF_ASC_NODE>53.3888</RA_OF_ASC_NODE><ARG_OF_PERICENTER>175.1362</ARG_OF_PERICENTER><MEAN_ANOMALY>184.9933</MEAN_ANOMALY></meanElements><tleParameters><EPHEMERIS_TYPE>0</EPHEMERIS_TYPE><CLASSIFICATION_TYPE>U</CLASSIFICATION_TYPE><NORAD_CAT_ID>62239</NORAD_CAT_ID><ELEMENT_SET_NO>999</ELEMENT_SET_NO><REV_AT_EPOCH>8299</REV_AT_EPOCH><BSTAR>.49852E-4</BSTAR><MEAN_MOTION_DOT>.44E-6</MEAN_MOTION_DOT><MEAN_MOTION_DDOT>0</MEAN_MOTION_DDOT></tleParameters></data></segment></body></omm>
<omm id="CCSDS_OMM_VERS" version="2.0">
<header><CREATION_DATE/><ORIGINATOR/></header><body><segment><metadata><OBJECT_NAME>QIANFAN-39</OBJECT_NAME><OBJECT_ID>2024-232D</OBJECT_ID><CENTER_NAME>EARTH</CENTER_NAME><REF_FRAME>TEME</REF_FRAME><TIME_SYSTEM>UTC</TIME_SYSTEM><MEAN_ELEMENT_THEORY>SGP4</MEAN_ELEMENT_THEORY></metadata><data><meanElements><EPOCH>2025-08-14T13:58:49.161216</EPOCH><MEAN_MOTION>14.25232698</MEAN_MOTION><ECCENTRICITY>.0018347</ECCENTRICITY><INCLINATION>88.9932</INCLINATION><RA_OF_ASC_NODE>51.0627</RA_OF_ASC_NODE><ARG_OF_PERICENTER>109.5903</ARG_OF_PERICENTER><MEAN_ANOMALY>250.7273</MEAN_ANOMALY></meanElements><tleParameters><EPHEMERIS_TYPE>0</EPHEMERIS_TYPE><CLASSIFICATION_TYPE>U</CLASSIFICATION_TYPE><NORAD_CAT_ID>62240</NORAD_CAT_ID><ELEMENT_SET_NO>999</ELEMENT_SET_NO><REV_AT_EPOCH>8427</REV_AT_EPOCH><BSTAR>.56588E-4</BSTAR><MEAN_MOTION_DOT>.148E-5</MEAN_MOTION_DOT><MEAN_MOTION_DDOT>0</MEAN_MOTION_DDOT></tleParameters></data></segment></body></omm>
<omm id="CCSDS_OMM_VERS" version="2.0">
<header><CREATION_DATE/><ORIGINATOR/></header><body><segment><metadata><OBJECT_NAME>QIANFAN-40</OBJECT_NAME><OBJECT_ID>2024-232E</OBJECT_ID><CENTER_NAME>EARTH</CENTER_NAME><REF_FRAME>TEME</REF_FRAME><TIME_SYSTEM>UTC</TIME_SYSTEM><MEAN_ELEMENT_THEORY>SGP4</MEAN_ELEMENT_THEORY></metadata><data><meanElements><EPOCH>2025-08-14T11:20:37.374720</EPOCH><MEAN_MOTION>13.50960405</MEAN_MOTION><ECCENTRICITY>.0013364</ECCENTRICITY><INCLINATION>88.9960</INCLINATION><RA_OF_ASC_NODE>52.9436</RA_OF_ASC_NODE><ARG_OF_PERICENTER>182.6413</ARG_OF_PERICENTER><MEAN_ANOMALY>177.4670</MEAN_ANOMALY></meanElements><tleParameters><EPHEMERIS_TYPE>0</EPHEMERIS_TYPE><CLASSIFICATION_TYPE>U</CLASSIFICATION_TYPE><NORAD_CAT_ID>62241</NORAD_CAT_ID><ELEMENT_SET_NO>999</ELEMENT_SET_NO><REV_AT_EPOCH>8335</REV_AT_EPOCH><BSTAR>.47069E-4</BSTAR><MEAN_MOTION_DOT>.42E-6</MEAN_MOTION_DOT><MEAN_MOTION_DDOT>0</MEAN_MOTION_DDOT></tleParameters></data></segment></body></omm>

</ndm>
