QIANFAN-33              
1 61566U 24185Q   25226.59838299  .00000223  00000+0  15202-3 0  9993
2 61566  88.9768  92.2227 0006841 359.4486   0.6682 13.96411739 52399
QIANFAN-34              
1 61567U 24185R   25226.55673005  .00000358  00000+0  22523-3 0  9995
2 61567  88.9746  91.9493 0006436  13.4452 346.6899 14.02164780 52513
QIANFAN-35              
1 61568U 24185S   25226.57655219  .00000506  00000+0  19933-3 0  9991
2 61568  88.9769  91.0037 0005860 341.1159  18.9817 14.27671046 53031
QIANFAN-36              
1 61569U 24185T   25226.57228918  .00000094  00000+0  11789-3 0  9997
2 61569  88.9758  93.5811 0007565  42.8110 317.3632 13.55546408 51642
QIANFAN-37              
1 62238U 24232B   25226.56305622  .00000049  00000+0  57513-4 0  9997
2 62238  88.9926  53.4762 0002648  88.6533 271.4921 13.50966138 82946
QIANFAN-38              
1 62239U 24232C   25226.51386189  .00000044  00000+0  49852-4 0  9992
2 62239  88.9932  53.3888 0014597 175.1362 184.9933 13.50963755 82998
QIANFAN-39              
1 62240U 24232D   25226.58251344  .00000148  00000+0  56588-4 0  9994
2 62240  88.9932  51.0627 0018347 109.5903 250.7273 14.25232698 84275
QIANFAN-40              
1 62241U 24232E   25226.47265480  .00000042  00000+0  47069-4 0  9996
2 62241  88.9960  52.9436 0013364 182.6413 177.4670 13.50960405 83352
